STARLINK-36388          
1 68037U 26040Y   26075.83335647 -.01594242  00000+0 -68580-2 0  9992
2 68037  97.2764  24.6305 0001702  94.5606 112.7954 15.87621615  3522
STARLINK-36895          
1 68038U 26040Z   26075.83335647 -.01575133  00000+0 -67502-2 0  9994
2 68038  97.2734  24.6222 0001653  92.0609 101.7353 15.87665001  3572
STARLINK-36373          
1 68039U 26040AA  26075.83335647 -.01568282  00000+0 -67027-2 0  9994
2 68039  97.2731  24.6207 0001687  87.6770 101.3997 15.87707034  3527
STARLINK-36711          
1 68040U 26041A   26075.83335647 -.00018978  00000+0 -11993-3 0  9990
2 68040  53.1594  26.4254 0001125  75.3801  44.3217 15.75235272  3523
STARLINK-36825          
1 68041U 26041B   26075.23459674  .00165828  00000+0  82514-3 0  9994
2 68041  53.1592  29.3235 0001471  80.7425 279.3765 15.80939360  2251
STARLINK-36925          
1 68042U 26041C   26075.83335647 -.00022902  00000+0 -14555-3 0  9991
2 68042  53.1594  26.4284 0001099 102.9840  14.8429 15.75251621  3521
STARLINK-36902          
1 68043U 26041D   26075.86603645  .00507724  00000+0  24058-2 0  9997
2 68043  53.1590  26.1512 0001316 100.1662 259.9509 15.81069961  2355
STARLINK-36966          
1 68044U 26041E   26075.83335647  .00079975  00000+0  52176-3 0  9994
2 68044  53.1594  26.3760 0001275  75.3589  68.2376 15.75203662  3526
STARLINK-36864          
1 68045U 26041F   26075.83335647  .00033472  00000+0  22173-3 0  9991
2 68045  53.1593  26.3722 0001081  84.1458  61.3066 15.75231217  3529
STARLINK-36321          
1 68046U 26041G   26075.83335647  .00094645  00000+0  47849-3 0  9998
2 68046  53.1596  26.2788 0001144  88.5975 102.5048 15.80842375  3523
STARLINK-36181          
1 68047U 26041H   26075.83335647  .00044272  00000+0  22684-3 0  9990
2 68047  53.1594  26.2871 0001388  99.5792  87.2468 15.80858652  3401
STARLINK-36318          
1 68048U 26041J   26075.83335647 -.00004878  00000+0 -27664-4 0  9995
2 68048  53.1598  26.3229 0001096  92.2320  77.1026 15.75241493  3521
