CCSDS_OMM_VERS = 2.0
CREATION_DATE  = 
ORIGINATOR     = 

OBJECT_NAME    = STARLINK-36388
OBJECT_ID      = 2026-040Y
CENTER_NAME    = EARTH
REF_FRAME      = TEME
TIME_SYSTEM    = UTC
MEAN_ELEMENT_THEORY = SGP/SGP4

EPOCH          = 2026-03-16T20:00:01.999008
MEAN_MOTION    = 15.87621615
ECCENTRICITY   = .0001702
INCLINATION    = 97.2764
RA_OF_ASC_NODE = 24.6305
ARG_OF_PERICENTER = 94.5606
MEAN_ANOMALY   = 112.7954

EPHEMERIS_TYPE = 0
CLASSIFICATION_TYPE = U
NORAD_CAT_ID   = 68037
ELEMENT_SET_NO = 999
REV_AT_EPOCH   = 352
BSTAR          = -.6858E-2
MEAN_MOTION_DOT = -.1594242E-1
MEAN_MOTION_DDOT = 0

CCSDS_OMM_VERS = 2.0
CREATION_DATE  = 
ORIGINATOR     = 

OBJECT_NAME    = STARLINK-36895
OBJECT_ID      = 2026-040Z
CENTER_NAME    = EARTH
REF_FRAME      = TEME
TIME_SYSTEM    = UTC
MEAN_ELEMENT_THEORY = SGP/SGP4

EPOCH          = 2026-03-16T20:00:01.999008
MEAN_MOTION    = 15.87665001
ECCENTRICITY   = .0001653
INCLINATION    = 97.2734
RA_OF_ASC_NODE = 24.6222
ARG_OF_PERICENTER = 92.0609
MEAN_ANOMALY   = 101.7353

EPHEMERIS_TYPE = 0
CLASSIFICATION_TYPE = U
NORAD_CAT_ID   = 68038
ELEMENT_SET_NO = 999
REV_AT_EPOCH   = 357
BSTAR          = -.67502E-2
MEAN_MOTION_DOT = -.1575133E-1
MEAN_MOTION_DDOT = 0

CCSDS_OMM_VERS = 2.0
CREATION_DATE  = 
ORIGINATOR     = 

OBJECT_NAME    = STARLINK-36373
OBJECT_ID      = 2026-040AA
CENTER_NAME    = EARTH
REF_FRAME      = TEME
TIME_SYSTEM    = UTC
MEAN_ELEMENT_THEORY = SGP/SGP4

EPOCH          = 2026-03-16T20:00:01.999008
MEAN_MOTION    = 15.87707034
ECCENTRICITY   = .0001687
INCLINATION    = 97.2731
RA_OF_ASC_NODE = 24.6207
ARG_OF_PERICENTER = 87.6770
MEAN_ANOMALY   = 101.3997

EPHEMERIS_TYPE = 0
CLASSIFICATION_TYPE = U
NORAD_CAT_ID   = 68039
ELEMENT_SET_NO = 999
REV_AT_EPOCH   = 352
BSTAR          = -.67027E-2
MEAN_MOTION_DOT = -.1568282E-1
MEAN_MOTION_DDOT = 0

CCSDS_OMM_VERS = 2.0
CREATION_DATE  = 
ORIGINATOR     = 

OBJECT_NAME    = STARLINK-36711
OBJECT_ID      = 2026-041A
CENTER_NAME    = EARTH
REF_FRAME      = TEME
TIME_SYSTEM    = UTC
MEAN_ELEMENT_THEORY = SGP/SGP4

EPOCH          = 2026-03-16T20:00:01.999008
MEAN_MOTION    = 15.75235272
ECCENTRICITY   = .0001125
INCLINATION    = 53.1594
RA_OF_ASC_NODE = 26.4254
ARG_OF_PERICENTER = 75.3801
MEAN_ANOMALY   = 44.3217

EPHEMERIS_TYPE = 0
CLASSIFICATION_TYPE = U
NORAD_CAT_ID   = 68040
ELEMENT_SET_NO = 999
REV_AT_EPOCH   = 352
BSTAR          = -.11993E-3
MEAN_MOTION_DOT = -.18978E-3
MEAN_MOTION_DDOT = 0

CCSDS_OMM_VERS = 2.0
CREATION_DATE  = 
ORIGINATOR     = 

OBJECT_NAME    = STARLINK-36825
OBJECT_ID      = 2026-041B
CENTER_NAME    = EARTH
REF_FRAME      = TEME
TIME_SYSTEM    = UTC
MEAN_ELEMENT_THEORY = SGP/SGP4

EPOCH          = 2026-03-16T05:37:49.158336
MEAN_MOTION    = 15.80939360
ECCENTRICITY   = .0001471
INCLINATION    = 53.1592
RA_OF_ASC_NODE = 29.3235
ARG_OF_PERICENTER = 80.7425
MEAN_ANOMALY   = 279.3765

EPHEMERIS_TYPE = 0
CLASSIFICATION_TYPE = U
NORAD_CAT_ID   = 68041
ELEMENT_SET_NO = 999
REV_AT_EPOCH   = 225
BSTAR          = .82513651E-3
MEAN_MOTION_DOT = .165828E-2
MEAN_MOTION_DDOT = 0

CCSDS_OMM_VERS = 2.0
CREATION_DATE  = 
ORIGINATOR     = 

OBJECT_NAME    = STARLINK-36925
OBJECT_ID      = 2026-041C
CENTER_NAME    = EARTH
REF_FRAME      = TEME
TIME_SYSTEM    = UTC
MEAN_ELEMENT_THEORY = SGP/SGP4

EPOCH          = 2026-03-16T20:00:01.999008
MEAN_MOTION    = 15.75251621
ECCENTRICITY   = .0001099
INCLINATION    = 53.1594
RA_OF_ASC_NODE = 26.4284
ARG_OF_PERICENTER = 102.9840
MEAN_ANOMALY   = 14.8429

EPHEMERIS_TYPE = 0
CLASSIFICATION_TYPE = U
NORAD_CAT_ID   = 68042
ELEMENT_SET_NO = 999
REV_AT_EPOCH   = 352
BSTAR          = -.14555E-3
MEAN_MOTION_DOT = -.22902E-3
MEAN_MOTION_DDOT = 0

CCSDS_OMM_VERS = 2.0
CREATION_DATE  = 
ORIGINATOR     = 

OBJECT_NAME    = STARLINK-36902
OBJECT_ID      = 2026-041D
CENTER_NAME    = EARTH
REF_FRAME      = TEME
TIME_SYSTEM    = UTC
MEAN_ELEMENT_THEORY = SGP/SGP4

EPOCH          = 2026-03-16T20:47:05.549280
MEAN_MOTION    = 15.81069961
ECCENTRICITY   = .0001316
INCLINATION    = 53.1590
RA_OF_ASC_NODE = 26.1512
ARG_OF_PERICENTER = 100.1662
MEAN_ANOMALY   = 259.9509

EPHEMERIS_TYPE = 0
CLASSIFICATION_TYPE = U
NORAD_CAT_ID   = 68043
ELEMENT_SET_NO = 999
REV_AT_EPOCH   = 235
BSTAR          = .24058E-2
MEAN_MOTION_DOT = .507724E-2
MEAN_MOTION_DDOT = 0

CCSDS_OMM_VERS = 2.0
CREATION_DATE  = 
ORIGINATOR     = 

OBJECT_NAME    = STARLINK-36966
OBJECT_ID      = 2026-041E
CENTER_NAME    = EARTH
REF_FRAME      = TEME
TIME_SYSTEM    = UTC
MEAN_ELEMENT_THEORY = SGP/SGP4

EPOCH          = 2026-03-16T20:00:01.999008
MEAN_MOTION    = 15.75203662
ECCENTRICITY   = .0001275
INCLINATION    = 53.1594
RA_OF_ASC_NODE = 26.3760
ARG_OF_PERICENTER = 75.3589
MEAN_ANOMALY   = 68.2376

EPHEMERIS_TYPE = 0
CLASSIFICATION_TYPE = U
NORAD_CAT_ID   = 68044
ELEMENT_SET_NO = 999
REV_AT_EPOCH   = 352
BSTAR          = .52176E-3
MEAN_MOTION_DOT = .79975E-3
MEAN_MOTION_DDOT = 0

CCSDS_OMM_VERS = 2.0
CREATION_DATE  = 
ORIGINATOR     = 

OBJECT_NAME    = STARLINK-36864
OBJECT_ID      = 2026-041F
CENTER_NAME    = EARTH
REF_FRAME      = TEME
TIME_SYSTEM    = UTC
MEAN_ELEMENT_THEORY = SGP/SGP4

EPOCH          = 2026-03-16T20:00:01.999008
MEAN_MOTION    = 15.75231217
ECCENTRICITY   = .0001081
INCLINATION    = 53.1593
RA_OF_ASC_NODE = 26.3722
ARG_OF_PERICENTER = 84.1458
MEAN_ANOMALY   = 61.3066

EPHEMERIS_TYPE = 0
CLASSIFICATION_TYPE = U
NORAD_CAT_ID   = 68045
ELEMENT_SET_NO = 999
REV_AT_EPOCH   = 352
BSTAR          = .22173E-3
MEAN_MOTION_DOT = .33472E-3
MEAN_MOTION_DDOT = 0

CCSDS_OMM_VERS = 2.0
CREATION_DATE  = 
ORIGINATOR     = 

OBJECT_NAME    = STARLINK-36321
OBJECT_ID      = 2026-041G
CENTER_NAME    = EARTH
REF_FRAME      = TEME
TIME_SYSTEM    = UTC
MEAN_ELEMENT_THEORY = SGP/SGP4

EPOCH          = 2026-03-16T20:00:01.999008
MEAN_MOTION    = 15.80842375
ECCENTRICITY   = .0001144
INCLINATION    = 53.1596
RA_OF_ASC_NODE = 26.2788
ARG_OF_PERICENTER = 88.5975
MEAN_ANOMALY   = 102.5048

EPHEMERIS_TYPE = 0
CLASSIFICATION_TYPE = U
NORAD_CAT_ID   = 68046
ELEMENT_SET_NO = 999
REV_AT_EPOCH   = 352
BSTAR          = .47849E-3
MEAN_MOTION_DOT = .94645E-3
MEAN_MOTION_DDOT = 0

CCSDS_OMM_VERS = 2.0
CREATION_DATE  = 
ORIGINATOR     = 

OBJECT_NAME    = STARLINK-36181
OBJECT_ID      = 2026-041H
CENTER_NAME    = EARTH
REF_FRAME      = TEME
TIME_SYSTEM    = UTC
MEAN_ELEMENT_THEORY = SGP/SGP4

EPOCH          = 2026-03-16T20:00:01.999008
MEAN_MOTION    = 15.80858652
ECCENTRICITY   = .0001388
INCLINATION    = 53.1594
RA_OF_ASC_NODE = 26.2871
ARG_OF_PERICENTER = 99.5792
MEAN_ANOMALY   = 87.2468

EPHEMERIS_TYPE = 0
CLASSIFICATION_TYPE = U
NORAD_CAT_ID   = 68047
ELEMENT_SET_NO = 999
REV_AT_EPOCH   = 340
BSTAR          = .22684E-3
MEAN_MOTION_DOT = .44272E-3
MEAN_MOTION_DDOT = 0

CCSDS_OMM_VERS = 2.0
CREATION_DATE  = 
ORIGINATOR     = 

OBJECT_NAME    = STARLINK-36318
OBJECT_ID      = 2026-041J
CENTER_NAME    = EARTH
REF_FRAME      = TEME
TIME_SYSTEM    = UTC
MEAN_ELEMENT_THEORY = SGP/SGP4

EPOCH          = 2026-03-16T20:00:01.999008
MEAN_MOTION    = 15.75241493
ECCENTRICITY   = .0001096
INCLINATION    = 53.1598
RA_OF_ASC_NODE = 26.3229
ARG_OF_PERICENTER = 92.2320
MEAN_ANOMALY   = 77.1026

EPHEMERIS_TYPE = 0
CLASSIFICATION_TYPE = U
NORAD_CAT_ID   = 68048
ELEMENT_SET_NO = 999
REV_AT_EPOCH   = 352
BSTAR          = -.27664E-4
MEAN_MOTION_DOT = -.4878E-4
MEAN_MOTION_DDOT = 0

